******** Week 380 almanac for PRN-17 ********
ID:                         17
Health:                     000
Eccentricity:               0.1261901855E-001
Time of Applicability(s):  319488.0000
Orbital Inclination(rad):   0.9574341088
Rate of Right Ascen(r/s):  -0.7931758961E-008
SQRT(A)  (m 1/2):           5153.627930
Right Ascen at Week(rad):  -0.4359389142E+000
Argument of Perigee(rad):  -1.098321630
Mean Anom(rad):             0.4352779093E+000
Af0(s):                    -0.1773834229E-003
Af1(s/s):                  -0.7275957614E-011
week:                        380

******** Week 380 almanac for PRN-18 ********
ID:                         18
Health:                     000
Eccentricity:               0.6301403046E-002
Time of Applicability(s):  319488.0000
Orbital Inclination(rad):   0.9708444564
Rate of Right Ascen(r/s):  -0.7954617056E-008
SQRT(A)  (m 1/2):           5153.572266
Right Ascen at Week(rad):   0.5757337742E+000
Argument of Perigee(rad):  -2.858910629
Mean Anom(rad):            -0.1531575704E+001
Af0(s):                    -0.2985000610E-003
Af1(s/s):                   0.7275957614E-011
week:                        380

******** Week 380 almanac for PRN-19 ********
ID:                         19
Health:                     000
Eccentricity:               0.1177215576E-001
Time of Applicability(s):  319488.0000
Orbital Inclination(rad):   0.9566012051
Rate of Right Ascen(r/s):  -0.7908900866E-008
SQRT(A)  (m 1/2):           5153.711914
Right Ascen at Week(rad):  -0.3921792659E+000
Argument of Perigee(rad):   3.030768908
Mean Anom(rad):             0.2066293843E+001
Af0(s):                     0.7038116455E-003
Af1(s/s):                   0.0000000000E+000
week:                        380

******** Week 380 almanac for PRN-20 ********
ID:                         20
Health:                     000
Eccentricity:               0.1908779144E-002
Time of Applicability(s):  319488.0000
Orbital Inclination(rad):   0.9621199407
Rate of Right Ascen(r/s):  -0.7794610391E-008
SQRT(A)  (m 1/2):           5153.564941
Right Ascen at Week(rad):   0.2628755088E+001
Argument of Perigee(rad):  -1.760006640
Mean Anom(rad):             0.3045992244E+001
Af0(s):                     0.2384185791E-003
Af1(s/s):                   0.1091393642E-010
week:                        380

******** Week 380 almanac for PRN-21 ********
ID:                         21
Health:                     000
Eccentricity:               0.7901191711E-003
Time of Applicability(s):  319488.0000
Orbital Inclination(rad):   0.9641812274
Rate of Right Ascen(r/s):  -0.7863184676E-008
SQRT(A)  (m 1/2):           5153.546875
Right Ascen at Week(rad):   0.1622726969E+001
Argument of Perigee(rad):  -0.082068347
Mean Anom(rad):             0.2761030596E+001
Af0(s):                     0.3948211670E-003
Af1(s/s):                  -0.3637978807E-011
week:                        380

******** Week 380 almanac for PRN-22 ********
ID:                         22
Health:                     000
Eccentricity:               0.1184272766E-001
Time of Applicability(s):  319488.0000
Orbital Inclination(rad):   0.9568169212
Rate of Right Ascen(r/s):  -0.7771752296E-008
SQRT(A)  (m 1/2):           5153.668945
Right Ascen at Week(rad):  -0.1448116812E+001
Argument of Perigee(rad):  -0.987403135
Mean Anom(rad):             0.1047630981E+001
Af0(s):                     0.4196166992E-004
Af1(s/s):                   0.7275957614E-011
week:                        380

******** Week 380 almanac for PRN-23 ********
ID:                         23
Health:                     000
Eccentricity:               0.6453514099E-002
Time of Applicability(s):  319488.0000
Orbital Inclination(rad):   0.9891982969
Rate of Right Ascen(r/s):  -0.7623174679E-008
SQRT(A)  (m 1/2):           5153.688477
Right Ascen at Week(rad):   0.1585426069E+001
Argument of Perigee(rad):  -2.742747163
Mean Anom(rad):            -0.2751107657E+001
Af0(s):                     0.6713867188E-003
Af1(s/s):                   0.3637978807E-011
week:                        380

******** Week 380 almanac for PRN-24 ********
ID:                         24
Health:                     000
Eccentricity:               0.1844310760E-001
Time of Applicability(s):  319488.0000
Orbital Inclination(rad):   0.9355089693
Rate of Right Ascen(r/s):  -0.8057478483E-008
SQRT(A)  (m 1/2):           5153.567383
Right Ascen at Week(rad):  -0.2698115287E+001
Argument of Perigee(rad):   1.162725230
Mean Anom(rad):            -0.1340911929E+001
Af0(s):                     0.1239776611E-003
Af1(s/s):                   0.1818989404E-010
week:                        380

******** Week 380 almanac for PRN-25 ********
ID:                         25
Health:                     000
Eccentricity:               0.1290512085E-001
Time of Applicability(s):  319488.0000
Orbital Inclination(rad):   0.9466902511
Rate of Right Ascen(r/s):  -0.7863184676E-008
SQRT(A)  (m 1/2):           5153.610840
Right Ascen at Week(rad):  -0.1563707283E+001
Argument of Perigee(rad):   1.161800197
Mean Anom(rad):             0.3126888759E+001
Af0(s):                     0.4043579102E-003
Af1(s/s):                  -0.3637978807E-011
week:                        380

******** Week 380 almanac for PRN-26 ********
ID:                         26
Health:                     000
Eccentricity:               0.1117277145E-001
Time of Applicability(s):  319488.0000
Orbital Inclination(rad):   0.9274555702
Rate of Right Ascen(r/s):  -0.8080336578E-008
SQRT(A)  (m 1/2):           5153.519043
Right Ascen at Week(rad):  -0.1640932131E+001
Argument of Perigee(rad):   0.715360106
Mean Anom(rad):             0.2257184569E+001
Af0(s):                    -0.3843307495E-003
Af1(s/s):                  -0.3637978807E-011
week:                        380

******** Week 380 almanac for PRN-27 ********
ID:                         27
Health:                     000
Eccentricity:               0.1432991028E-001
Time of Applicability(s):  319488.0000
Orbital Inclination(rad):   0.9508907220
Rate of Right Ascen(r/s):  -0.7988904198E-008
SQRT(A)  (m 1/2):           5153.624023
Right Ascen at Week(rad):  -0.5095141904E+000
Argument of Perigee(rad):   0.900534732
Mean Anom(rad):             0.5744855422E+000
Af0(s):                     0.9536743164E-006
Af1(s/s):                   0.0000000000E+000
week:                        380

******** Week 380 almanac for PRN-28 ********
ID:                         28
Health:                     000
Eccentricity:               0.5125999451E-003
Time of Applicability(s):  319488.0000
Orbital Inclination(rad):   0.9622457751
Rate of Right Ascen(r/s):  -0.7794610391E-008
SQRT(A)  (m 1/2):           5153.566895
Right Ascen at Week(rad):  -0.2611228533E+001
Argument of Perigee(rad):  -0.301714097
Mean Anom(rad):            -0.1653011480E+001
Af0(s):                    -0.4644393921E-003
Af1(s/s):                   0.1091393642E-010
week:                        380

******** Week 380 almanac for PRN-29 ********
ID:                         29
Health:                     000
Eccentricity:               0.3659248352E-002
Time of Applicability(s):  319488.0000
Orbital Inclination(rad):   0.9601365515
Rate of Right Ascen(r/s):  -0.7920329914E-008
SQRT(A)  (m 1/2):           5153.638672
Right Ascen at Week(rad):  -0.4188269390E+000
Argument of Perigee(rad):   2.871355498
Mean Anom(rad):             0.2726163991E+000
Af0(s):                    -0.2765655518E-003
Af1(s/s):                   0.7275957614E-011
week:                        380

******** Week 380 almanac for PRN-30 ********
ID:                         30
Health:                     000
Eccentricity:               0.8214950562E-002
Time of Applicability(s):  319488.0000
Orbital Inclination(rad):   0.9366294943
Rate of Right Ascen(r/s):  -0.8068907531E-008
SQRT(A)  (m 1/2):           5153.618652
Right Ascen at Week(rad):  -0.2598191944E+001
Argument of Perigee(rad):  -2.259476927
Mean Anom(rad):            -0.2607339652E+001
Af0(s):                     0.3042221069E-003
Af1(s/s):                   0.1455191523E-010
week:                        380

******** Week 380 almanac for PRN-31 ********
ID:                         31
Health:                     000
Eccentricity:               0.1092052460E-001
Time of Applicability(s):  319488.0000
Orbital Inclination(rad):   0.9550192874
Rate of Right Ascen(r/s):  -0.7851755629E-008
SQRT(A)  (m 1/2):           5153.577148
Right Ascen at Week(rad):  -0.2562270353E+001
Argument of Perigee(rad):   0.977986905
Mean Anom(rad):             0.2882384355E+001
Af0(s):                    -0.1335144043E-003
Af1(s/s):                   0.3637978807E-011
week:                        380

******** Week 380 almanac for PRN-32 ********
ID:                         32
Health:                     000
Eccentricity:               0.9466171265E-002
Time of Applicability(s):  319488.0000
Orbital Inclination(rad):   0.9697179393
Rate of Right Ascen(r/s):  -0.7703178011E-008
SQRT(A)  (m 1/2):           5153.526855
Right Ascen at Week(rad):   0.2641344891E+001
Argument of Perigee(rad):  -1.973106757
Mean Anom(rad):             0.1081083821E+001
Af0(s):                     0.1773834229E-003
Af1(s/s):                   0.2182787284E-010
week:                        380

